50497,ONEWEB-0424,2021,109.2,148.0,+,87.92,Active,1,LEO,Kazakhstan,UK,Commercial,Communications,Soyuz,1 50497U 21132AE  24022.29587507 -.00000017  00000+0 -75893-4 0  9992,2 50497  87.9241 149.9514 0001602  82.5226 277.6088 13.18685831106071,13.18685831,0.0001602,LEO
50498,ONEWEB-0426,2021,109.2,148.0,+,87.92,Active,1,LEO,Kazakhstan,UK,Commercial,Communications,Soyuz,1 50498U 21132AF  24022.25793115 -.00000205  00000+0 -55207-3 0  9998,2 50498  87.9235 149.9819 0001005 120.8843 239.2388 13.18686289106010,13.18686289,0.0001005,LEO
50499,ONEWEB-0427,2021,109.2,148.0,+,87.92,Active,1,LEO,Kazakhstan,UK,Commercial,Communications,Soyuz,1 50499U 21132AG  24022.29429058  .00000106  00000+0  23540-3 0  9998,2 50499  87.9238 149.9503 0001283 103.7083 256.4192 13.18687450106046,13.1868745,0.0001283,LEO
50500,ONEWEB-0429,2021,109.2,148.0,+,87.92,Active,1,LEO,Kazakhstan,UK,Commercial,Communications,Soyuz,1 50500U 21132AH  24022.28165615  .00000096  00000+0  21175-3 0  9996,2 50500  87.9245 149.9497 0001622 106.0868 254.0443 13.18688196106011,13.18688196,0.0001622,LEO
50501,ONEWEB-0430,2021,109.2,148.0,+,87.92,Active,1,LEO,Kazakhstan,UK,Commercial,Communications,Soyuz,1 50501U 21132AJ  24022.27058100  .00000212  00000+0  50395-3 0  9992,2 50501  87.9241 149.9615 0001798  90.8449 269.2889 13.18688225106058,13.18688225,0.0001798,LEO
50502,ONEWEB-0432,2021,109.2,148.0,+,87.92,Active,1,LEO,Kazakhstan,UK,Commercial,Communications,Soyuz,1 50502U 21132AK  24022.30218744  .00000081  00000+0  17165-3 0  9991,2 50502  87.9239 149.9497 0001660 103.4194 256.7123 13.18686263106018,13.18686263,0.000166,LEO
50503,ONEWEB-0440,2021,109.2,148.0,+,87.92,Active,1,LEO,Kazakhstan,UK,Commercial,Communications,Soyuz,1 50503U 21132AL  24022.28954388  .00000021  00000+0  21409-4 0  9991,2 50503  87.9244 149.9364 0001939 123.7035 236.4282 13.18685459106002,13.18685459,0.0001939,LEO
50504,ONEWEB-0450,2021,109.2,148.0,+,87.92,Active,1,LEO,Kazakhstan,UK,Commercial,Communications,Soyuz,1 50504U 21132AM  24022.28322273 -.00000034  00000+0 -11856-3 0  9994,2 50504  87.9244 149.9660 0001983 102.0136 258.1219 13.18685646106035,13.18685646,0.0001983,LEO
